      2.10          N: GNSS NAV DATA                        RINEX VERSION / TYPE
fic2rin                                 09/06/2020 00:17:36 PGM / RUN BY / DATE
                                                            END OF HEADER
21 20  9  5 10  0  0.0 4.370324313641e-05 4.206412995700e-12 0.000000000000e+00
    3.600000000000e+01 7.715625000000e+01 4.660194115791e-09-3.013819788114e+00
    3.974884748459e-06 2.378306293394e-02 7.309019565582e-06 5.155050119400e+03
    5.544000000000e+05 2.644956111908e-07 1.241763792469e+00 3.054738044739e-07
    9.540801110034e-01 2.287500000000e+02-1.293087938463e+00-7.812825435539e-09
    3.375140588153e-10 1.000000000000e+00 2.121000000000e+03 0.000000000000e+00
    2.400000000000e+00 0.000000000000e+00-1.024454832077e-08 3.600000000000e+01
    5.472000000000e+05 4.000000000000e+00
19 20  9  5 10  0  0.0-1.089992001653e-04 5.115907697473e-12 0.000000000000e+00
    8.000000000000e+01-1.637500000000e+01 3.892304987269e-09-1.590686320459e+00
   -6.444752216339e-07 9.283206774853e-03 1.210719347000e-05 5.153703886032e+03
    5.544000000000e+05-6.705522537231e-08 3.672016659833e-01 2.086162567139e-07
    9.821878524093e-01 1.580937500000e+02 1.711798260983e+00-7.667819395456e-09
   -1.542921411727e-10 1.000000000000e+00 2.121000000000e+03 0.000000000000e+00
    2.400000000000e+00 0.000000000000e+00-1.536682248116e-08 8.000000000000e+01
    5.472000000000e+05 4.000000000000e+00
11 20  9  5 10  0  0.0-1.729340292513e-04 1.057287590811e-11 0.000000000000e+00
    8.800000000000e+01 3.815625000000e+01 5.694522914022e-09-4.985463395762e-01
    2.000480890274e-06 1.598058186937e-02 1.015327870846e-05 5.153720252991e+03
    5.544000000000e+05-1.993030309677e-07 8.373123730098e-01-8.381903171539e-08
    9.134211776241e-01 1.610000000000e+02 2.038145380959e+00-8.824653296517e-09
    2.896549224330e-10 1.000000000000e+00 2.121000000000e+03 0.000000000000e+00
    2.400000000000e+00 0.000000000000e+00-1.210719347000e-08 8.800000000000e+01
    5.472000000000e+05 4.000000000000e+00
32 20  9  5 10  0  0.0 3.423220477998e-04 5.002220859751e-12 0.000000000000e+00
    1.700000000000e+01-3.109375000000e+01 4.198389165475e-09 2.882534691860e+00
   -1.538544893265e-06 4.118002136238e-03 1.100823283195e-05 5.153759298325e+03
    5.544000000000e+05-1.676380634308e-08-2.885183138270e+00-6.146728992462e-08
    9.574353092294e-01 1.640000000000e+02-2.448653951283e+00-7.830326164515e-09
   -9.286101089098e-11 1.000000000000e+00 2.121000000000e+03 0.000000000000e+00
    2.400000000000e+00 0.000000000000e+00 4.656612873077e-10 1.700000000000e+01
    5.472000000000e+05 4.000000000000e+00
25 20  9  5 10  0  0.0 4.481105133891e-05 5.229594535194e-12 0.000000000000e+00
    5.100000000000e+01-2.646875000000e+01 4.859488131472e-09-1.608436199561e+00
   -1.311302185059e-06 9.106150246225e-03 3.984197974205e-06 5.153736215591e+03
    5.544000000000e+05 2.067536115646e-07-7.827293400017e-01 0.000000000000e+00
    9.641362888778e-01 3.022187500000e+02 9.356119947150e-01-8.271058808513e-09
   -6.893144269984e-11 1.000000000000e+00 2.121000000000e+03 0.000000000000e+00
    2.400000000000e+00 0.000000000000e+00 5.587935447693e-09 5.100000000000e+01
    5.472000000000e+05 4.000000000000e+00
17 20  9  5 10  0  0.0 3.214529715478e-04 5.570655048359e-12 0.000000000000e+00
    6.700000000000e+01-3.496875000000e+01 3.824087860037e-09 2.095408397965e+00
   -1.870095729828e-06 1.337912410963e-02 1.187436282635e-05 5.153754735947e+03
    5.544000000000e+05 1.788139343262e-07 3.217474919488e-01-1.955777406693e-07
    9.839158673366e-01 1.578750000000e+02-1.637931656279e+00-7.453881912672e-09
   -2.353669468352e-10 1.000000000000e+00 2.121000000000e+03 0.000000000000e+00
    3.400000000000e+00 0.000000000000e+00-1.117587089539e-08 6.700000000000e+01
    5.472000000000e+05 4.000000000000e+00
26 20  9  5 10  0  0.0 2.735690213740e-04 6.480149750132e-12 0.000000000000e+00
    4.200000000000e+01-2.575000000000e+01 5.281648573292e-09-2.167418384076e+00
   -1.536682248116e-06 4.904819652438e-03 4.069879651070e-06 5.153668802261e+03
    5.544000000000e+05 9.313225746155e-09-8.199033333391e-01-1.322478055954e-07
    9.451432863602e-01 2.952187500000e+02 2.011083446041e-01-8.547498894781e-09
   -8.107480566251e-11 1.000000000000e+00 2.121000000000e+03 0.000000000000e+00
    2.400000000000e+00 0.000000000000e+00 6.984919309616e-09 4.200000000000e+01
    5.472000000000e+05 4.000000000000e+00
28 20  9  5 10  0  0.0 6.821076385677e-04-4.092726157978e-12 0.000000000000e+00
    4.800000000000e+01-4.375000000000e+01 4.523045545859e-09 2.958353497835e+00
   -2.320855855942e-06 1.841219863854e-02 4.494562745094e-06 5.153661962509e+03
    5.544000000000e+05 3.259629011154e-07-6.900177581464e-01 5.960464477539e-08
    9.761092566285e-01 2.979062500000e+02-1.398499594927e+00-7.930687487824e-09
   -2.692969315838e-10 1.000000000000e+00 2.121000000000e+03 0.000000000000e+00
    3.400000000000e+00 0.000000000000e+00-1.117587089539e-08 4.800000000000e+01
    5.472000000000e+05 4.000000000000e+00
18 20  9  5 10  0  0.0 2.843323163688e-04 7.389644451905e-12 0.000000000000e+00
    1.120000000000e+02 5.515625000000e+01 4.516616706644e-09 5.006880501813e-01
    2.630054950714e-06 9.897188283503e-04 7.042661309242e-06 5.153713018417e+03
    5.544000000000e+05-1.676380634308e-08 1.334176093470e+00-1.862645149231e-08
    9.647114746195e-01 2.451250000000e+02 2.702003649092e+00-8.120338244682e-09
    2.160804291886e-10 1.000000000000e+00 2.121000000000e+03 0.000000000000e+00
    2.400000000000e+00 0.000000000000e+00-8.381903171539e-09 3.680000000000e+02
    5.472000000000e+05 4.000000000000e+00
23 20  9  5 10  0  0.0 5.574803799391e-05 6.821210263297e-12 0.000000000000e+00
    1.650000000000e+02-3.615625000000e+01 4.737697344111e-09 2.712077787212e-01
   -1.842156052589e-06 9.869533823803e-04 4.455447196960e-06 5.153633384705e+03
    5.544000000000e+05-9.313225746155e-09 2.333654319487e+00-7.823109626770e-08
    9.614282461112e-01 2.988750000000e+02 1.813890486105e+00-8.298202796312e-09
   -2.796545058755e-10 1.000000000000e+00 2.121000000000e+03 0.000000000000e+00
    6.144000000000e+03 6.300000000000e+01-8.381903171539e-09 6.770000000000e+02
    5.472000000000e+05 4.000000000000e+00
17 20  9  5  9 59 44.0 3.214534372091e-04 5.570655048359e-12 0.000000000000e+00
    3.300000000000e+01-3.496875000000e+01 3.823730702303e-09 2.093074756896e+00
   -1.870095729828e-06 1.337912934832e-02 1.187436282635e-05 5.153754730225e+03
    5.543840000000e+05 1.788139343262e-07 3.217476089822e-01-1.955777406693e-07
    9.839158702625e-01 1.578750000000e+02-1.637931618244e+00-7.453881912672e-09
   -2.357241045694e-10 1.000000000000e+00 2.121000000000e+03 0.000000000000e+00
    2.400000000000e+00 0.000000000000e+00-1.117587089539e-08 3.300000000000e+01
    5.524500000000e+05 4.000000000000e+00
19 20  9  5  9 59 44.0-1.090005971491e-04 5.115907697473e-12 0.000000000000e+00
    1.000000000000e+00-1.637500000000e+01 3.891947829535e-09-1.593020169261e+00
   -6.444752216339e-07 9.283204213716e-03 1.210719347000e-05 5.153703882217e+03
    5.543840000000e+05-6.705522537231e-08 3.672017757022e-01 2.086162567139e-07
    9.821878421689e-01 1.580937500000e+02 1.711798436533e+00-7.667819395456e-09
   -1.542921411727e-10 1.000000000000e+00 2.121000000000e+03 0.000000000000e+00
    2.400000000000e+00 0.000000000000e+00-1.536682248116e-08 1.000000000000e+00
    5.525100000000e+05 4.000000000000e+00
19 20  9  5 11 59 44.0-1.089642755687e-04 5.115907697473e-12 0.000000000000e+00
    8.000000000000e+00-1.715625000000e+01 3.933735284436e-09-5.428629485122e-01
   -9.108334779739e-07 9.283055551350e-03 1.213513314724e-05 5.153703706741e+03
    5.615840000000e+05-9.313225746155e-08 3.671451388287e-01-1.117587089539e-08
    9.821863543812e-01 1.598125000000e+02 1.711799593701e+00-7.848541208959e-09
   -7.071723137082e-11 1.000000000000e+00 2.121000000000e+03 0.000000000000e+00
    2.400000000000e+00 0.000000000000e+00-1.536682248116e-08 8.000000000000e+00
    5.544000000000e+05 4.000000000000e+00
17 20  9  5 11 59 44.0 3.214930184186e-04 5.570655048359e-12 0.000000000000e+00
    3.800000000000e+01-2.693750000000e+01 3.825516490974e-09-3.140036461317e+00
   -1.367181539536e-06 1.337843597867e-02 1.181475818157e-05 5.153756464005e+03
    5.615840000000e+05 3.054738044739e-07 3.216936097501e-01-4.284083843231e-08
    9.839142595897e-01 1.585937500000e+02-1.637879990402e+00-7.468525379774e-09
   -1.457203555520e-10 1.000000000000e+00 2.121000000000e+03 0.000000000000e+00
    2.400000000000e+00 0.000000000000e+00-1.117587089539e-08 3.800000000000e+01
    5.544000000000e+05 4.000000000000e+00
 1 20  9  5 12  0  0.0 3.601098433137e-05 3.410605131648e-13 0.000000000000e+00
    2.600000000000e+01 6.115625000000e+01 4.318394164165e-09 1.078349982565e+00
    3.328546881676e-06 1.008660322987e-02 7.623806595802e-06 5.153700166702e+03
    5.616000000000e+05-9.685754776001e-08 1.318394765211e+00 1.508742570877e-07
    9.810966691286e-01 2.441875000000e+02 8.259886131926e-01-8.120695402416e-09
    2.453673633927e-10 1.000000000000e+00 2.121000000000e+03 0.000000000000e+00
    3.400000000000e+00 0.000000000000e+00 5.122274160385e-09 2.600000000000e+01
    5.544000000000e+05 4.000000000000e+00
 2 20  9  5 12  0  0.0-5.122181028128e-04-5.229594535194e-12 0.000000000000e+00
    8.500000000000e+01 5.903125000000e+01 4.710553356312e-09 1.317021159743e+00
    2.700835466385e-06 1.978972333018e-02 8.668750524521e-06 5.153770982742e+03
    5.616000000000e+05-2.384185791016e-07 1.240012318187e+00-4.302710294724e-07
    9.600564517362e-01 2.149687500000e+02-1.606156104220e+00-8.300702900451e-09
    3.885876148053e-10 1.000000000000e+00 2.121000000000e+03 0.000000000000e+00
    2.400000000000e+00 0.000000000000e+00-1.769512891769e-08 8.500000000000e+01
    5.544000000000e+05 4.000000000000e+00
